OBJECT_NAME,OBJECT_ID,EPOCH,MEAN_MOTION,ECCENTRICITY,INCLINATION,RA_OF_ASC_NODE,ARG_OF_PERICENTER,MEAN_ANOMALY,EPHEMERIS_TYPE,CLASSIFICATION_TYPE,NORAD_CAT_ID,ELEMENT_SET_NO,REV_AT_EPOCH,BSTAR,MEAN_MOTION_DOT,MEAN_MOTION_DDOT
STARLINK-37511,2026-133E,2026-06-28T22:00:01.999584,15.80862599,.00009597,53.1586,263.2417,85.1335,254.3821,0,U,69512,999,375,.911185E-4,.17312E-3,0
STARLINK-37552,2026-133F,2026-06-28T22:00:01.999584,15.76307365,.00005883,53.1590,263.2104,78.4436,275.8057,0,U,69513,999,375,-.16080215E-1,-.2246855E-1,0
STARLINK-37607,2026-133G,2026-06-28T22:00:01.999584,15.80870190,.00010069,53.1592,263.1801,81.7940,287.1676,0,U,69514,999,375,-.37166474E-4,-.8026E-4,0
STARLINK-37232,2026-133H,2026-06-28T22:00:01.999584,15.81370254,.0000298,53.1590,263.1344,79.1619,311.7817,0,U,69515,999,375,-.1042225E-1,-.1845343E-1,0
STARLINK-37323,2026-133J,2026-06-28T22:00:01.999584,15.80861051,.00009248,53.1594,263.1273,99.4721,294.7133,0,U,69516,999,375,.94870107E-4,.18054E-3,0
STARLINK-37357,2026-133K,2026-06-28T22:00:01.999584,15.74595592,.00008101,53.1594,263.1304,63.7128,328.7900,0,U,69517,999,375,-.17486991E-1,-.226268E-1,0
STARLINK-37408,2026-133L,2026-06-28T22:00:01.999584,15.80855062,.00008581,53.1592,263.0854,84.2915,329.9890,0,U,69518,999,375,.14650821E-3,.28288E-3,0
STARLINK-37570,2026-133M,2026-06-28T22:00:01.999584,15.78028518,.00008995,53.1594,263.0309,76.9961,3.2910,0,U,69519,999,375,-.14676431E-1,-.2220403E-1,0
STARLINK-37510,2026-133N,2026-06-28T22:00:01.999584,15.79884602,.00006381,53.1591,263.0601,72.5010,354.0411,0,U,69520,999,375,-.13775846E-1,-.2262418E-1,0
STARLINK-37586,2026-133P,2026-06-28T22:00:01.999584,15.80853502,.00013776,53.1589,262.9462,66.7608,54.5173,0,U,69521,999,375,.11000067E-3,.21045E-3,0
STARLINK-37379,2026-133Q,2026-06-28T22:00:01.999584,15.80867159,.00010521,53.1592,262.9561,70.0116,46.4204,0,U,69522,999,380,.25516301E-4,.4339E-4,0
STARLINK-37429,2026-133R,2026-06-28T22:00:01.999584,15.74781806,.00012371,53.1594,262.9658,53.0290,58.5257,0,U,69523,999,380,-.16739907E-1,-.2194677E-1,0
STARLINK-37352,2026-133S,2026-06-28T22:00:01.999584,15.80867025,.00013687,53.1588,262.9040,44.9687,96.3464,0,U,69524,999,380,-.59800054E-4,-.12482E-3,0
STARLINK-37490,2026-133T,2026-06-28T22:00:01.999584,15.80873797,.00011801,53.1586,262.8071,100.1612,87.6489,0,U,69525,999,380,-.15291422E-3,-.30773E-3,0
STARLINK-37438,2026-133U,2026-06-28T22:00:01.999584,15.80271016,.00011502,53.1589,262.8779,84.7981,69.2171,0,U,69526,999,380,-.14395017E-1,-.2386944E-1,0
STARLINK-37484,2026-133V,2026-06-28T22:00:01.999584,15.80855893,.00009788,53.1588,262.7914,83.4358,111.9453,0,U,69527,999,380,.13362233E-3,.25732E-3,0
STARLINK-37523,2026-133W,2026-06-28T22:00:01.999584,15.81185906,.00013989,53.1585,262.7903,102.1312,93.8477,0,U,69528,999,380,-.49194236E-2,-.890118E-2,0
STARLINK-37369,2026-133X,2026-06-28T22:00:01.999584,15.81205844,.0000859,53.1586,262.7653,113.3646,94.2039,0,U,69529,999,380,-.5272267E-2,-.948031E-2,0
STARLINK-37670,2026-133Y,2026-06-28T22:00:01.999584,15.78106119,.00012852,53.1589,262.7277,79.9628,146.0346,0,U,69530,999,380,-.15561783E-1,-.2343208E-1,0
STARLINK-37897,2026-133Z,2026-06-28T22:00:01.999584,15.80876889,.00011171,53.1588,262.6879,81.5250,163.3274,0,U,69531,999,375,-.77594254E-4,-.15988E-3,0
STARLINK-37933,2026-133AA,2026-06-28T22:00:01.999584,15.80865861,.00011322,53.1586,262.6398,68.2719,199.4276,0,U,69532,999,375,-.57775149E-4,-.12082E-3,0
STARLINK-37890,2026-133AB,2026-06-28T22:00:01.999584,15.80883339,.00012709,53.1582,262.5876,78.5825,214.4159,0,U,69533,999,375,-.13459044E-3,-.27192E-3,0
STARLINK-37407,2026-133AC,2026-06-28T22:00:01.999584,15.80883800,.00011057,53.1580,262.5442,74.7401,238.6341,0,U,69534,999,380,-.19493433E-3,-.39018E-3,0
STARLINK-37888,2026-133AD,2026-06-28T22:00:01.999584,15.80880611,.0001051,53.1578,262.4706,82.7934,266.1129,0,U,69535,999,375,-.1774605E-4,-.4201E-4,0
STARLINK-37889,2026-133AE,2026-06-28T22:00:01.999584,15.76814819,.00010951,53.1595,263.0063,53.6163,39.8608,0,U,69536,999,375,-.1590655E-1,-.2270558E-1,0
2026-134A,2026-134A,2026-06-28T22:09:49.435776,15.09317442,.00146081,97.7017,250.0715,227.1473,132.8529,0,U,69538,999,208,.30291438E-3,.4776E-4,0
2026-134B,2026-134B,2026-06-28T22:07:46.175808,15.09473895,.00147042,97.6992,250.0695,229.7271,130.2673,0,U,69539,999,207,.29076109E-3,.4602E-4,0
2026-134C,2026-134C,2026-06-28T22:07:21.609696,15.09505762,.00141201,97.6998,250.0708,230.9432,129.0541,0,U,69540,999,207,.29348087E-3,.4649E-4,0
2026-134D,2026-134D,2026-06-28T22:06:36.450144,15.09562882,.00151783,97.7037,250.0778,230.6985,129.2899,0,U,69541,999,207,.28977324E-3,.4598E-4,0
