STARLINK-37511          
1 69512U 26133E   26179.91668981  .00017312  00000+0  91119-4 0  9999
2 69512  53.1586 263.2417 0000959  85.1335 254.3821 15.80862599  3759
STARLINK-37552          
1 69513U 26133F   26179.91668981 -.02246855  00000+0 -16080-1 0  9991
2 69513  53.1590 263.2104 0000588  78.4436 275.8057 15.76307365  3752
STARLINK-37607          
1 69514U 26133G   26179.91668981 -.00008026  00000+0 -37166-4 0  9997
2 69514  53.1592 263.1801 0001006  81.7940 287.1676 15.80870190  3750
STARLINK-37232          
1 69515U 26133H   26179.91668981 -.01845343  00000+0 -10422-1 0  9993
2 69515  53.1590 263.1344 0000298  79.1619 311.7817 15.81370254  3755
STARLINK-37323          
1 69516U 26133J   26179.91668981  .00018054  00000+0  94870-4 0  9994
2 69516  53.1594 263.1273 0000924  99.4721 294.7133 15.80861051  3756
STARLINK-37357          
1 69517U 26133K   26179.91668981 -.02262680  00000+0 -17487-1 0  9991
2 69517  53.1594 263.1304 0000810  63.7128 328.7900 15.74595592  3758
STARLINK-37408          
1 69518U 26133L   26179.91668981  .00028288  00000+0  14651-3 0  9994
2 69518  53.1592 263.0854 0000858  84.2915 329.9890 15.80855062  3759
STARLINK-37570          
1 69519U 26133M   26179.91668981 -.02220403  00000+0 -14676-1 0  9997
2 69519  53.1594 263.0309 0000899  76.9961   3.2910 15.78028518  3751
STARLINK-37510          
1 69520U 26133N   26179.91668981 -.02262418  00000+0 -13776-1 0  9991
2 69520  53.1591 263.0601 0000638  72.5010 354.0411 15.79884602  3751
STARLINK-37586          
1 69521U 26133P   26179.91668981  .00021045  00000+0  11000-3 0  9997
2 69521  53.1589 262.9462 0001377  66.7608  54.5173 15.80853502  3755
STARLINK-37379          
1 69522U 26133Q   26179.91668981  .00004339  00000+0  25516-4 0  9993
2 69522  53.1592 262.9561 0001052  70.0116  46.4204 15.80867159  3806
STARLINK-37429          
1 69523U 26133R   26179.91668981 -.02194677  00000+0 -16740-1 0  9999
2 69523  53.1594 262.9658 0001237  53.0290  58.5257 15.74781806  3804
STARLINK-37352          
1 69524U 26133S   26179.91668981 -.00012482  00000+0 -59800-4 0  9998
2 69524  53.1588 262.9040 0001368  44.9687  96.3464 15.80867025  3802
STARLINK-37490          
1 69525U 26133T   26179.91668981 -.00030773  00000+0 -15291-3 0  9997
2 69525  53.1586 262.8071 0001180 100.1612  87.6489 15.80873797  3802
STARLINK-37438          
1 69526U 26133U   26179.91668981 -.02386944  00000+0 -14395-1 0  9996
2 69526  53.1589 262.8779 0001150  84.7981  69.2171 15.80271016  3804
STARLINK-37484          
1 69527U 26133V   26179.91668981  .00025732  00000+0  13362-3 0  9993
2 69527  53.1588 262.7914 0000978  83.4358 111.9453 15.80855893  3804
STARLINK-37523          
1 69528U 26133W   26179.91668981 -.00890118  00000+0 -49194-2 0  9995
2 69528  53.1585 262.7903 0001398 102.1312  93.8477 15.81185906  3802
STARLINK-37369          
1 69529U 26133X   26179.91668981 -.00948031  00000+0 -52723-2 0  9996
2 69529  53.1586 262.7653 0000859 113.3646  94.2039 15.81205844  3804
STARLINK-37670          
1 69530U 26133Y   26179.91668981 -.02343208  00000+0 -15562-1 0  9994
2 69530  53.1589 262.7277 0001285  79.9628 146.0346 15.78106119  3800
STARLINK-37897          
1 69531U 26133Z   26179.91668981 -.00015988  00000+0 -77594-4 0  9990
2 69531  53.1588 262.6879 0001117  81.5250 163.3274 15.80876889  3758
STARLINK-37933          
1 69532U 26133AA  26179.91668981 -.00012082  00000+0 -57775-4 0  9992
2 69532  53.1586 262.6398 0001132  68.2719 199.4276 15.80865861  3752
STARLINK-37890          
1 69533U 26133AB  26179.91668981 -.00027192  00000+0 -13459-3 0  9991
2 69533  53.1582 262.5876 0001270  78.5825 214.4159 15.80883339  3752
STARLINK-37407          
1 69534U 26133AC  26179.91668981 -.00039018  00000+0 -19493-3 0  9996
2 69534  53.1580 262.5442 0001105  74.7401 238.6341 15.80883800  3805
STARLINK-37888          
1 69535U 26133AD  26179.91668981 -.00004201  00000+0 -17746-4 0  9993
2 69535  53.1578 262.4706 0001051  82.7934 266.1129 15.80880611  3756
STARLINK-37889          
1 69536U 26133AE  26179.91668981 -.02270558  00000+0 -15907-1 0  9990
2 69536  53.1595 263.0063 0001095  53.6163  39.8608 15.76814819  3757
2026-134A               
1 69538U 26134A   26179.92348884  .00004776  00000+0  30291-3 0  9999
2 69538  97.7017 250.0715 0014608 227.1473 132.8529 15.09317442  2085
2026-134B               
1 69539U 26134B   26179.92206222  .00004602  00000+0  29076-3 0  9996
2 69539  97.6992 250.0695 0014704 229.7271 130.2673 15.09473895  2071
2026-134C               
1 69540U 26134C   26179.92177789  .00004649  00000+0  29348-3 0  9996
2 69540  97.6998 250.0708 0014120 230.9432 129.0541 15.09505762  2078
2026-134D               
1 69541U 26134D   26179.92125521  .00004598  00000+0  28977-3 0  9994
2 69541  97.7037 250.0778 0015178 230.6985 129.2899 15.09562882  2079
